CCSDS_OMM_VERS = 2.0
CREATION_DATE  = 
ORIGINATOR     = 

OBJECT_NAME    = STARLINK-36786
OBJECT_ID      = 2026-034Y
CENTER_NAME    = EARTH
REF_FRAME      = TEME
TIME_SYSTEM    = UTC
MEAN_ELEMENT_THEORY = SGP/SGP4

EPOCH          = 2026-03-15T12:45:06.880032
MEAN_MOTION    = 15.80898732
ECCENTRICITY   = .00009537
INCLINATION    = 53.1584
RA_OF_ASC_NODE = 181.8859
ARG_OF_PERICENTER = 114.8549
MEAN_ANOMALY   = 245.2573

EPHEMERIS_TYPE = 0
CLASSIFICATION_TYPE = U
NORAD_CAT_ID   = 67872
ELEMENT_SET_NO = 999
REV_AT_EPOCH   = 486
BSTAR          = .15218041E-2
MEAN_MOTION_DOT = .311103E-2
MEAN_MOTION_DDOT = 0

CCSDS_OMM_VERS = 2.0
CREATION_DATE  = 
ORIGINATOR     = 

OBJECT_NAME    = STARLINK-36783
OBJECT_ID      = 2026-034Z
CENTER_NAME    = EARTH
REF_FRAME      = TEME
TIME_SYSTEM    = UTC
MEAN_ELEMENT_THEORY = SGP/SGP4

EPOCH          = 2026-03-15T17:17:08.071584
MEAN_MOTION    = 15.81001569
ECCENTRICITY   = .00014558
INCLINATION    = 53.1585
RA_OF_ASC_NODE = 180.9283
ARG_OF_PERICENTER = 138.2572
MEAN_ANOMALY   = 221.8562

EPHEMERIS_TYPE = 0
CLASSIFICATION_TYPE = U
NORAD_CAT_ID   = 67873
ELEMENT_SET_NO = 999
REV_AT_EPOCH   = 489
BSTAR          = .1760417E-2
MEAN_MOTION_DOT = .363946E-2
MEAN_MOTION_DDOT = 0

CCSDS_OMM_VERS = 2.0
CREATION_DATE  = 
ORIGINATOR     = 

OBJECT_NAME    = STARLINK-36730
OBJECT_ID      = 2026-034AA
CENTER_NAME    = EARTH
REF_FRAME      = TEME
TIME_SYSTEM    = UTC
MEAN_ELEMENT_THEORY = SGP/SGP4

EPOCH          = 2026-03-15T14:13:59.406816
MEAN_MOTION    = 15.80965483
ECCENTRICITY   = .00019662
INCLINATION    = 53.1584
RA_OF_ASC_NODE = 181.5593
ARG_OF_PERICENTER = 27.4807
MEAN_ANOMALY   = 332.6320

EPHEMERIS_TYPE = 0
CLASSIFICATION_TYPE = U
NORAD_CAT_ID   = 67874
ELEMENT_SET_NO = 999
REV_AT_EPOCH   = 487
BSTAR          = .15460604E-2
MEAN_MOTION_DOT = .317271E-2
MEAN_MOTION_DDOT = 0

CCSDS_OMM_VERS = 2.0
CREATION_DATE  = 
ORIGINATOR     = 

OBJECT_NAME    = STARLINK-36727
OBJECT_ID      = 2026-034AB
CENTER_NAME    = EARTH
REF_FRAME      = TEME
TIME_SYSTEM    = UTC
MEAN_ELEMENT_THEORY = SGP/SGP4

EPOCH          = 2026-03-15T12:41:52.529280
MEAN_MOTION    = 15.80904677
ECCENTRICITY   = .00008478
INCLINATION    = 53.1586
RA_OF_ASC_NODE = 181.8701
ARG_OF_PERICENTER = 55.7602
MEAN_ANOMALY   = 304.3501

EPHEMERIS_TYPE = 0
CLASSIFICATION_TYPE = U
NORAD_CAT_ID   = 67875
ELEMENT_SET_NO = 999
REV_AT_EPOCH   = 486
BSTAR          = .10229815E-2
MEAN_MOTION_DOT = .206404E-2
MEAN_MOTION_DDOT = 0

CCSDS_OMM_VERS = 2.0
CREATION_DATE  = 
ORIGINATOR     = 

OBJECT_NAME    = STARLINK-36743
OBJECT_ID      = 2026-034AC
CENTER_NAME    = EARTH
REF_FRAME      = TEME
TIME_SYSTEM    = UTC
MEAN_ELEMENT_THEORY = SGP/SGP4

EPOCH          = 2026-03-15T17:13:53.723424
MEAN_MOTION    = 15.80968920
ECCENTRICITY   = .00015546
INCLINATION    = 53.1588
RA_OF_ASC_NODE = 180.9140
ARG_OF_PERICENTER = 152.0266
MEAN_ANOMALY   = 208.0840

EPHEMERIS_TYPE = 0
CLASSIFICATION_TYPE = U
NORAD_CAT_ID   = 67876
ELEMENT_SET_NO = 999
REV_AT_EPOCH   = 489
BSTAR          = .13576723E-2
MEAN_MOTION_DOT = .277266E-2
MEAN_MOTION_DDOT = 0

CCSDS_OMM_VERS = 2.0
CREATION_DATE  = 
ORIGINATOR     = 

OBJECT_NAME    = STARLINK-36784
OBJECT_ID      = 2026-034AD
CENTER_NAME    = EARTH
REF_FRAME      = TEME
TIME_SYSTEM    = UTC
MEAN_ELEMENT_THEORY = SGP/SGP4

EPOCH          = 2026-03-15T17:12:49.160160
MEAN_MOTION    = 15.80945873
ECCENTRICITY   = .00012079
INCLINATION    = 53.1590
RA_OF_ASC_NODE = 180.9093
ARG_OF_PERICENTER = 130.3087
MEAN_ANOMALY   = 229.8041

EPHEMERIS_TYPE = 0
CLASSIFICATION_TYPE = U
NORAD_CAT_ID   = 67877
ELEMENT_SET_NO = 999
REV_AT_EPOCH   = 489
BSTAR          = .10880781E-2
MEAN_MOTION_DOT = .22036E-2
MEAN_MOTION_DDOT = 0

CCSDS_OMM_VERS = 2.0
CREATION_DATE  = 
ORIGINATOR     = 

OBJECT_NAME    = STARLINK-36689
OBJECT_ID      = 2026-034AE
CENTER_NAME    = EARTH
REF_FRAME      = TEME
TIME_SYSTEM    = UTC
MEAN_ELEMENT_THEORY = SGP/SGP4

EPOCH          = 2026-03-15T12:38:38.076576
MEAN_MOTION    = 15.80905091
ECCENTRICITY   = .00009369
INCLINATION    = 53.1585
RA_OF_ASC_NODE = 181.8545
ARG_OF_PERICENTER = 122.2134
MEAN_ANOMALY   = 237.8980

EPHEMERIS_TYPE = 0
CLASSIFICATION_TYPE = U
NORAD_CAT_ID   = 67878
ELEMENT_SET_NO = 999
REV_AT_EPOCH   = 486
BSTAR          = .1177993E-2
MEAN_MOTION_DOT = .238692E-2
MEAN_MOTION_DDOT = 0

CCSDS_OMM_VERS = 2.0
CREATION_DATE  = 
ORIGINATOR     = 

OBJECT_NAME    = STARLINK-36818
OBJECT_ID      = 2026-035A
CENTER_NAME    = EARTH
REF_FRAME      = TEME
TIME_SYSTEM    = UTC
MEAN_ELEMENT_THEORY = SGP/SGP4

EPOCH          = 2026-03-16T06:00:02.999808
MEAN_MOTION    = 15.75154716
ECCENTRICITY   = .00010885
INCLINATION    = 97.2869
RA_OF_ASC_NODE = 7.9530
ARG_OF_PERICENTER = 101.7732
MEAN_ANOMALY   = 304.8087

EPHEMERIS_TYPE = 0
CLASSIFICATION_TYPE = U
NORAD_CAT_ID   = 67879
ELEMENT_SET_NO = 999
REV_AT_EPOCH   = 481
BSTAR          = .65441452E-3
MEAN_MOTION_DOT = .98461E-3
MEAN_MOTION_DDOT = 0

CCSDS_OMM_VERS = 2.0
CREATION_DATE  = 
ORIGINATOR     = 

OBJECT_NAME    = STARLINK-36821
OBJECT_ID      = 2026-035B
CENTER_NAME    = EARTH
REF_FRAME      = TEME
TIME_SYSTEM    = UTC
MEAN_ELEMENT_THEORY = SGP/SGP4

EPOCH          = 2026-03-16T06:00:02.999808
MEAN_MOTION    = 15.75133415
ECCENTRICITY   = .0001226
INCLINATION    = 97.2867
RA_OF_ASC_NODE = 7.9590
ARG_OF_PERICENTER = 104.9566
MEAN_ANOMALY   = 317.6432

EPHEMERIS_TYPE = 0
CLASSIFICATION_TYPE = U
NORAD_CAT_ID   = 67880
ELEMENT_SET_NO = 999
REV_AT_EPOCH   = 481
BSTAR          = .73319199E-3
MEAN_MOTION_DOT = .110383E-2
MEAN_MOTION_DDOT = 0

CCSDS_OMM_VERS = 2.0
CREATION_DATE  = 
ORIGINATOR     = 

OBJECT_NAME    = STARLINK-36808
OBJECT_ID      = 2026-035C
CENTER_NAME    = EARTH
REF_FRAME      = TEME
TIME_SYSTEM    = UTC
MEAN_ELEMENT_THEORY = SGP/SGP4

EPOCH          = 2026-03-16T01:03:34.857216
MEAN_MOTION    = 15.81010211
ECCENTRICITY   = .00028162
INCLINATION    = 97.2867
RA_OF_ASC_NODE = 7.7478
ARG_OF_PERICENTER = 300.7386
MEAN_ANOMALY   = 59.3604

EPHEMERIS_TYPE = 0
CLASSIFICATION_TYPE = U
NORAD_CAT_ID   = 67881
ELEMENT_SET_NO = 999
REV_AT_EPOCH   = 484
BSTAR          = .25752471E-2
MEAN_MOTION_DOT = .528895E-2
MEAN_MOTION_DDOT = 0

CCSDS_OMM_VERS = 2.0
CREATION_DATE  = 
ORIGINATOR     = 

OBJECT_NAME    = STARLINK-36817
OBJECT_ID      = 2026-035D
CENTER_NAME    = EARTH
REF_FRAME      = TEME
TIME_SYSTEM    = UTC
MEAN_ELEMENT_THEORY = SGP/SGP4

EPOCH          = 2026-03-16T07:04:56.661600
MEAN_MOTION    = 15.81081670
ECCENTRICITY   = .0002424
INCLINATION    = 97.2893
RA_OF_ASC_NODE = 8.0175
ARG_OF_PERICENTER = 208.0767
MEAN_ANOMALY   = 152.0371

EPHEMERIS_TYPE = 0
CLASSIFICATION_TYPE = U
NORAD_CAT_ID   = 67882
ELEMENT_SET_NO = 999
REV_AT_EPOCH   = 488
BSTAR          = .18503958E-2
MEAN_MOTION_DOT = .374455E-2
MEAN_MOTION_DDOT = 0

CCSDS_OMM_VERS = 2.0
CREATION_DATE  = 
ORIGINATOR     = 

OBJECT_NAME    = STARLINK-36856
OBJECT_ID      = 2026-035E
CENTER_NAME    = EARTH
REF_FRAME      = TEME
TIME_SYSTEM    = UTC
MEAN_ELEMENT_THEORY = SGP/SGP4

EPOCH          = 2026-03-16T07:06:00.616608
MEAN_MOTION    = 15.81159236
ECCENTRICITY   = .00035744
INCLINATION    = 97.2888
RA_OF_ASC_NODE = 8.0167
ARG_OF_PERICENTER = 221.1238
MEAN_ANOMALY   = 138.9762

EPHEMERIS_TYPE = 0
CLASSIFICATION_TYPE = U
NORAD_CAT_ID   = 67883
ELEMENT_SET_NO = 999
REV_AT_EPOCH   = 488
BSTAR          = .23122551E-2
MEAN_MOTION_DOT = .475151E-2
MEAN_MOTION_DDOT = 0

CCSDS_OMM_VERS = 2.0
CREATION_DATE  = 
ORIGINATOR     = 

OBJECT_NAME    = STARLINK-36842
OBJECT_ID      = 2026-035F
CENTER_NAME    = EARTH
REF_FRAME      = TEME
TIME_SYSTEM    = UTC
MEAN_ELEMENT_THEORY = SGP/SGP4

EPOCH          = 2026-03-16T06:00:02.999808
MEAN_MOTION    = 15.75147069
ECCENTRICITY   = .00015152
INCLINATION    = 97.2869
RA_OF_ASC_NODE = 7.9634
ARG_OF_PERICENTER = 83.2402
MEAN_ANOMALY   = 355.3410

EPHEMERIS_TYPE = 0
CLASSIFICATION_TYPE = U
NORAD_CAT_ID   = 67884
ELEMENT_SET_NO = 999
REV_AT_EPOCH   = 481
BSTAR          = .71797831E-3
MEAN_MOTION_DOT = .108127E-2
MEAN_MOTION_DDOT = 0

CCSDS_OMM_VERS = 2.0
CREATION_DATE  = 
ORIGINATOR     = 

OBJECT_NAME    = STARLINK-36826
OBJECT_ID      = 2026-035G
CENTER_NAME    = EARTH
REF_FRAME      = TEME
TIME_SYSTEM    = UTC
MEAN_ELEMENT_THEORY = SGP/SGP4

EPOCH          = 2026-03-16T00:00:02.000160
MEAN_MOTION    = 15.80978493
ECCENTRICITY   = .00015341
INCLINATION    = 97.2875
RA_OF_ASC_NODE = 7.7096
ARG_OF_PERICENTER = 50.4529
MEAN_ANOMALY   = 80.0185

EPHEMERIS_TYPE = 0
CLASSIFICATION_TYPE = U
NORAD_CAT_ID   = 67885
ELEMENT_SET_NO = 999
REV_AT_EPOCH   = 477
BSTAR          = -.17944403E-2
MEAN_MOTION_DOT = -.333565E-2
MEAN_MOTION_DDOT = 0

CCSDS_OMM_VERS = 2.0
CREATION_DATE  = 
ORIGINATOR     = 

OBJECT_NAME    = STARLINK-36390
OBJECT_ID      = 2026-035H
CENTER_NAME    = EARTH
REF_FRAME      = TEME
TIME_SYSTEM    = UTC
MEAN_ELEMENT_THEORY = SGP/SGP4

EPOCH          = 2026-03-16T06:00:02.999808
MEAN_MOTION    = 15.75227134
ECCENTRICITY   = .00010063
INCLINATION    = 97.2866
RA_OF_ASC_NODE = 7.9679
ARG_OF_PERICENTER = 134.2682
MEAN_ANOMALY   = 316.2303

EPHEMERIS_TYPE = 0
CLASSIFICATION_TYPE = U
NORAD_CAT_ID   = 67886
ELEMENT_SET_NO = 999
REV_AT_EPOCH   = 486
BSTAR          = .40327033E-3
MEAN_MOTION_DOT = .60544E-3
MEAN_MOTION_DDOT = 0

